{
    "links": {
        "self": "http://www.neowsapp.com/rest/v1/neo/54016579?api_key=iIulBulltgU6a56xZRHN4H3l9WmuAYTsLGpBGhQ2"
    },
    "id": "54016579",
    "neo_reference_id": "54016579",
    "name": "(2020 HD1)",
    "designation": "2020 HD1",
    "nasa_jpl_url": "http://ssd.jpl.nasa.gov/sbdb.cgi?sstr=54016579",
    "absolute_magnitude_h": 23.734,
    "estimated_diameter": {
        "kilometers": {
            "estimated_diameter_min": 0.0476162266,
            "estimated_diameter_max": 0.1064731196
        },
        "meters": {
            "estimated_diameter_min": 47.6162266346,
            "estimated_diameter_max": 106.4731195871
        },
        "miles": {
            "estimated_diameter_min": 0.0295873424,
            "estimated_diameter_max": 0.0661593088
        },
        "feet": {
            "estimated_diameter_min": 156.221220992,
            "estimated_diameter_max": 349.3212696661
        }
    },
    "is_potentially_hazardous_asteroid": false,
    "close_approach_data": [
        {
            "close_approach_date": "2016-04-17",
            "close_approach_date_full": "2016-Apr-17 07:47",
            "epoch_date_close_approach": 1460879220000,
            "relative_velocity": {
                "kilometers_per_second": "14.9751502095",
                "kilometers_per_hour": "53910.5407542796",
                "miles_per_hour": "33497.91350368"
            },
            "miss_distance": {
                "astronomical": "0.4322220428",
                "lunar": "168.1343746492",
                "kilometers": "64659496.969928836",
                "miles": "40177548.3594404968"
            },
            "orbiting_body": "Earth"
        },
        {
            "close_approach_date": "2018-04-15",
            "close_approach_date_full": "2018-Apr-15 07:59",
            "epoch_date_close_approach": 1523779140000,
            "relative_velocity": {
                "kilometers_per_second": "13.1159631013",
                "kilometers_per_hour": "47217.4671647236",
                "miles_per_hour": "29339.097861325"
            },
            "miss_distance": {
                "astronomical": "0.2633900622",
                "lunar": "102.4587341958",
                "kilometers": "39402592.284287514",
                "miles": "24483635.5241911332"
            },
            "orbiting_body": "Earth"
        },
        {
            "close_approach_date": "2020-04-11",
            "close_approach_date_full": "2020-Apr-11 17:14",
            "epoch_date_close_approach": 1586625240000,
            "relative_velocity": {
                "kilometers_per_second": "12.453158331",
                "kilometers_per_hour": "44831.3699917026",
                "miles_per_hour": "27856.4698706777"
            },
            "miss_distance": {
                "astronomical": "0.1327172924",
                "lunar": "51.6270267436",
                "kilometers": "19854224.255207188",
                "miles": "12336842.8851796744"
            },
            "orbiting_body": "Earth"
        },
        {
            "close_approach_date": "2022-04-08",
            "close_approach_date_full": "2022-Apr-08 15:41",
            "epoch_date_close_approach": 1649432460000,
            "relative_velocity": {
                "kilometers_per_second": "13.2929443131",
                "kilometers_per_hour": "47854.599527223",
                "miles_per_hour": "29734.9871340125"
            },
            "miss_distance": {
                "astronomical": "0.176343189",
                "lunar": "68.597500521",
                "kilometers": "26380565.46340743",
                "miles": "16392123.266105334"
            },
            "orbiting_body": "Earth"
        },
        {
            "close_approach_date": "2024-04-04",
            "close_approach_date_full": "2024-Apr-04 10:37",
            "epoch_date_close_approach": 1712227020000,
            "relative_velocity": {
                "kilometers_per_second": "15.4164241489",
                "kilometers_per_hour": "55499.1269360735",
                "miles_per_hour": "34484.9991786952"
            },
            "miss_distance": {
                "astronomical": "0.3291123919",
                "lunar": "128.0247204491",
                "kilometers": "49234512.818845253",
                "miles": "30592907.6536523714"
            },
            "orbiting_body": "Earth"
        }
    ],
    "orbital_data": {
        "orbit_id": "5",
        "orbit_determination_date": "2020-05-03 06:05:32",
        "first_observation_date": "2020-04-10",
        "last_observation_date": "2020-05-01",
        "data_arc_in_days": 21,
        "observations_used": 28,
        "orbit_uncertainty": "7",
        "minimum_orbit_intersection": ".121482",
        "jupiter_tisserand_invariant": "4.278",
        "epoch_osculation": "2459000.5",
        "eccentricity": ".2873665470339298",
        "semi_major_axis": "1.572486816142759",
        "inclination": "23.0240693054354",
        "ascending_node_longitude": "199.0720185320572",
        "orbital_period": "720.2428345532603",
        "perihelion_distance": "1.120606709531436",
        "perihelion_argument": "9.752237795688171",
        "aphelion_distance": "2.024366922754081",
        "perihelion_time": "2458961.490057921653",
        "mean_anomaly": "19.498394811405",
        "mean_motion": ".4998314217499915",
        "equinox": "J2000",
        "orbit_class": {
            "orbit_class_type": "AMO",
            "orbit_class_description": "Near-Earth asteroid orbits similar to that of 1221 Amor",
            "orbit_class_range": "1.017 AU < q (perihelion) < 1.3 AU"
        }
    },
    "is_sentry_object": false
}